{"type": "FeatureCollection", "features": [ {"type": "Feature", "properties": {"norad_id": 31753, "name": "FENGYUN 1C DEB", "group": "fengyun-1c-debris", "lat": 2.828936585557285, "lon": -163.5346342186583, "alt_km": 719.2108562639578, "timestamp": "2025-12-08T19:31:49.092366+00:00", "meta": {"OBJECT_NAME": "FENGYUN 1C DEB", "OBJECT_ID": "1999-025CFC", "EPOCH": "2025-12-04T13:51:22.468032", "MEAN_MOTION": 14.18618704, "ECCENTRICITY": 0.0158713, "INCLINATION": 98.6331, "RA_OF_ASC_NODE": 11.9101, "ARG_OF_PERICENTER": 197.2848, "MEAN_ANOMALY": 316.6014, "EPHEMERIS_TYPE": 0, "CLASSIFICATION_TYPE": "U", "NORAD_CAT_ID": 31753, "ELEMENT_SET_NO": 999, "REV_AT_EPOCH": 95903, "BSTAR": 0.00056773, "MEAN_MOTION_DOT": 1.29e-05, "MEAN_MOTION_DDOT": 0}, "tle": {"line1": "1 31753U 99025CFC 25338.57734338  .00001290  00000+0  56773-3 0  9997", "line2": "2 31753  98.6331  11.9101 0158713 197.2848 316.6014 14.18618704959035"}}, "geometry": {"type": "Point", "coordinates": [-163.5346342186583, 2.828936585557285]}}, {"type": "Feature", "properties": {"norad_id": 31754, "name": "FENGYUN 1C DEB", "group": "fengyun-1c-debris", "lat": -61.446530835225, "lon": -35.11474912138745, "alt_km": 744.714006790271, "timestamp": "2025-12-08T19:31:49.092375+00:00", "meta": {"OBJECT_NAME": "FENGYUN 1C DEB", "OBJECT_ID": "1999-025CFD", "EPOCH": "2025-12-07T20:30:38.239200", "MEAN_MOTION": 14.42210247, "ECCENTRICITY": 0.00491454, "INCLINATION": 99.0396, "RA_OF_ASC_NODE": 306.859, "ARG_OF_PERICENTER": 232.6338, "MEAN_ANOMALY": 127.0368, "EPHEMERIS_TYPE": 0, "CLASSIFICATION_TYPE": "U", "NORAD_CAT_ID": 31754, "ELEMENT_SET_NO": 999, "REV_AT_EPOCH": 96919, "BSTAR": 0.0018753135, "MEAN_MOTION_DOT": 6.224e-05, "MEAN_MOTION_DDOT": 0}, "tle": {"line1": "1 31754U 99025CFD 25341.85460925  .00006224  00000+0  18753-2 0  9998", "line2": "2 31754  99.0396 306.8590 0049145 232.6338 127.0368 14.42210247969197"}}, "geometry": {"type": "Point", "coordinates": [-35.11474912138745, -61.446530835225]}}, {"type": "Feature", "properties": {"norad_id": 31757, "name": "FENGYUN 1C DEB", "group": "fengyun-1c-debris", "lat": 66.49529996257806, "lon": -15.791989677136051, "alt_km": 718.4310503331071, "timestamp": "2025-12-08T19:31:49.092384+00:00", "meta": {"OBJECT_NAME": "FENGYUN 1C DEB", "OBJECT_ID": "1999-025CFG", "EPOCH": "2025-12-06T19:27:27.186912", "MEAN_MOTION": 14.07911335, "ECCENTRICITY": 0.02180919, "INCLINATION": 98.7682, "RA_OF_ASC_NODE": 3.0467, "ARG_OF_PERICENTER": 100.7376, "MEAN_ANOMALY": 261.8428, "EPHEMERIS_TYPE": 0, "CLASSIFICATION_TYPE": "U", "NORAD_CAT_ID": 31757, "ELEMENT_SET_NO": 999, "REV_AT_EPOCH": 63798, "BSTAR": 0.0002802881, "MEAN_MOTION_DOT": 5.5e-06, "MEAN_MOTION_DDOT": 0}, "tle": {"line1": "1 31757U 99025CFG 25340.81073133  .00000550  00000+0  28029-3 0  9991", "line2": "2 31757  98.7682   3.0467 0218091 100.7376 261.8428 14.07911335637988"}}, "geometry": {"type": "Point", "coordinates": [-15.791989677136051, 66.49529996257806]}}, {"type": "Feature", "properties": {"norad_id": 31758, "name": "FENGYUN 1C DEB", "group": "fengyun-1c-debris", "lat": -12.343317294766507, "lon": 170.32357877353846, "alt_km": 750.2591954493737, "timestamp": "2025-12-08T19:31:49.092393+00:00", "meta": {"OBJECT_NAME": "FENGYUN 1C DEB", "OBJECT_ID": "1999-025CFH", "EPOCH": "2025-12-08T07:00:57.261024", "MEAN_MOTION": 14.41853246, "ECCENTRICITY": 0.03185901, "INCLINATION": 98.0601, "RA_OF_ASC_NODE": 351.6072, "ARG_OF_PERICENTER": 103.752, "MEAN_ANOMALY": 259.9342, "EPHEMERIS_TYPE": 0, "CLASSIFICATION_TYPE": "U", "NORAD_CAT_ID": 31758, "ELEMENT_SET_NO": 999, "REV_AT_EPOCH": 94136, "BSTAR": 0.0021852111, "MEAN_MOTION_DOT": 0.00013165, "MEAN_MOTION_DDOT": 0}, "tle": {"line1": "1 31758U 99025CFH 25342.29232941  .00013165  00000+0  21852-2 0  9992", "line2": "2 31758  98.0601 351.6072 0318590 103.7520 259.9342 14.41853246941363"}}, "geometry": {"type": "Point", "coordinates": [170.32357877353846, -12.343317294766507]}}, {"type": "Feature", "properties": {"norad_id": 31760, "name": "FENGYUN 1C DEB", "group": "fengyun-1c-debris", "lat": -6.375241868675173, "lon": 81.28048097602681, "alt_km": 825.8120452121975, "timestamp": "2025-12-08T19:31:49.092402+00:00", "meta": {"OBJECT_NAME": "FENGYUN 1C DEB", "OBJECT_ID": "1999-025CFK", "EPOCH": "2025-12-06T17:11:16.328544", "MEAN_MOTION": 14.30141393, "ECCENTRICITY": 0.00526189, "INCLINATION": 99.2547, "RA_OF_ASC_NODE": 78.0076, "ARG_OF_PERICENTER": 214.5256, "MEAN_ANOMALY": 145.2503, "EPHEMERIS_TYPE": 0, "CLASSIFICATION_TYPE": "U", "NORAD_CAT_ID": 31760, "ELEMENT_SET_NO": 999, "REV_AT_EPOCH": 96046, "BSTAR": 0.0014272056, "MEAN_MOTION_DOT": 3.7e-05, "MEAN_MOTION_DDOT": 0}, "tle": {"line1": "1 31760U 99025CFK 25340.71616121  .00003700  00000+0  14272-2 0  9998", "line2": "2 31760  99.2547  78.0076 0052618 214.5256 145.2503 14.30141393960464"}}, "geometry": {"type": "Point", "coordinates": [81.28048097602681, -6.375241868675173]}}, {"type": "Feature", "properties": {"norad_id": 31761, "name": "FENGYUN 1C DEB", "group": "fengyun-1c-debris", "lat": -36.95364558180267, "lon": 20.3101744476383, "alt_km": 691.1631283085399, "timestamp": "2025-12-08T19:31:49.092411+00:00", "meta": {"OBJECT_NAME": "FENGYUN 1C DEB", "OBJECT_ID": "1999-025CFL", "EPOCH": "2025-12-07T09:56:19.759776", "MEAN_MOTION": 14.03309134, "ECCENTRICITY": 0.04730733, "INCLINATION": 98.6327, "RA_OF_ASC_NODE": 205.5384, "ARG_OF_PERICENTER": 278.4671, "MEAN_ANOMALY": 76.3165, "EPHEMERIS_TYPE": 0, "CLASSIFICATION_TYPE": "U", "NORAD_CAT_ID": 31761, "ELEMENT_SET_NO": 999, "REV_AT_EPOCH": 58036, "BSTAR": 0.0031997876, "MEAN_MOTION_DOT": 0.00013643, "MEAN_MOTION_DDOT": 0}, "tle": {"line1": "1 31761U 99025CFL 25341.41411759  .00013643  00000+0  31998-2 0  9998", "line2": "2 31761  98.6327 205.5384 0473073 278.4671  76.3165 14.03309134580369"}}, "geometry": {"type": "Point", "coordinates": [20.3101744476383, -36.95364558180267]}}, {"type": "Feature", "properties": {"norad_id": 31763, "name": "FENGYUN 1C DEB", "group": "fengyun-1c-debris", "lat": -77.56904960597328, "lon": 134.6111614354296, "alt_km": 1460.5549668222457, "timestamp": "2025-12-08T19:31:49.092420+00:00", "meta": {"OBJECT_NAME": "FENGYUN 1C DEB", "OBJECT_ID": "1999-025CFN", "EPOCH": "2025-12-08T05:51:53.611200", "MEAN_MOTION": 13.50313879, "ECCENTRICITY": 0.05471877, "INCLINATION": 98.5212, "RA_OF_ASC_NODE": 91.2677, "ARG_OF_PERICENTER": 81.2412, "MEAN_ANOMALY": 313.6008, "EPHEMERIS_TYPE": 0, "CLASSIFICATION_TYPE": "U", "NORAD_CAT_ID": 31763, "ELEMENT_SET_NO": 999, "REV_AT_EPOCH": 90945, "BSTAR": 0.0011696232, "MEAN_MOTION_DOT": 1.885e-05, "MEAN_MOTION_DDOT": 0}, "tle": {"line1": "1 31763U 99025CFN 25342.24437050  .00001885  00000+0  11696-2 0  9992", "line2": "2 31763  98.5212  91.2677 0547187  81.2412 313.6008 13.50313879909459"}}, "geometry": {"type": "Point", "coordinates": [134.6111614354296, -77.56904960597328]}}, {"type": "Feature", "properties": {"norad_id": 31766, "name": "FENGYUN 1C DEB", "group": "fengyun-1c-debris", "lat": -30.483635809163424, "lon": 155.50678810111484, "alt_km": 882.5063619183265, "timestamp": "2025-12-08T19:31:49.092429+00:00", "meta": {"OBJECT_NAME": "FENGYUN 1C DEB", "OBJECT_ID": "1999-025CFR", "EPOCH": "2025-12-05T17:02:42.241632", "MEAN_MOTION": 14.0527359, "ECCENTRICITY": 0.00736647, "INCLINATION": 98.8158, "RA_OF_ASC_NODE": 337.7312, "ARG_OF_PERICENTER": 310.9952, "MEAN_ANOMALY": 48.486, "EPHEMERIS_TYPE": 0, "CLASSIFICATION_TYPE": "U", "NORAD_CAT_ID": 31766, "ELEMENT_SET_NO": 999, "REV_AT_EPOCH": 63987, "BSTAR": 0.00041011226, "MEAN_MOTION_DOT": 6.36e-06, "MEAN_MOTION_DDOT": 0}, "tle": {"line1": "1 31766U 99025CFR 25339.71021113  .00000636  00000+0  41011-3 0  9990", "line2": "2 31766  98.8158 337.7312 0073664 310.9952  48.4860 14.05273590639874"}}, "geometry": {"type": "Point", "coordinates": [155.50678810111484, -30.483635809163424]}}, {"type": "Feature", "properties": {"norad_id": 31767, "name": "FENGYUN 1C DEB", "group": "fengyun-1c-debris", "lat": -9.578469332737827, "lon": -168.8863732240457, "alt_km": 890.4823999233895, "timestamp": "2025-12-08T19:31:49.092438+00:00", "meta": {"OBJECT_NAME": "FENGYUN 1C DEB", "OBJECT_ID": "1999-025CFS", "EPOCH": "2025-12-07T08:32:11.520096", "MEAN_MOTION": 14.04950995, "ECCENTRICITY": 0.00419502, "INCLINATION": 98.823, "RA_OF_ASC_NODE": 11.1978, "ARG_OF_PERICENTER": 84.7824, "MEAN_ANOMALY": 293.7404, "EPHEMERIS_TYPE": 0, "CLASSIFICATION_TYPE": "U", "NORAD_CAT_ID": 31767, "ELEMENT_SET_NO": 999, "REV_AT_EPOCH": 94750, "BSTAR": 0.00021662596, "MEAN_MOTION_DOT": 3.09e-06, "MEAN_MOTION_DDOT": 0}, "tle": {"line1": "1 31767U 99025CFS 25341.35568889  .00000309  00000+0  21663-3 0  9998", "line2": "2 31767  98.8230  11.1978 0041950  84.7824 293.7404 14.04950995947505"}}, "geometry": {"type": "Point", "coordinates": [-168.8863732240457, -9.578469332737827]}}, {"type": "Feature", "properties": {"norad_id": 31768, "name": "FENGYUN 1C DEB", "group": "fengyun-1c-debris", "lat": 16.607089806171523, "lon": 52.50298340080929, "alt_km": 625.6771231257417, "timestamp": "2025-12-08T19:31:49.092447+00:00", "meta": {"OBJECT_NAME": "FENGYUN 1C DEB", "OBJECT_ID": "1999-025CFT", "EPOCH": "2025-12-07T00:05:23.203392", "MEAN_MOTION": 14.75847078, "ECCENTRICITY": 0.00263444, "INCLINATION": 99.0428, "RA_OF_ASC_NODE": 53.2026, "ARG_OF_PERICENTER": 359.844, "MEAN_ANOMALY": 125.5614, "EPHEMERIS_TYPE": 0, "CLASSIFICATION_TYPE": "U", "NORAD_CAT_ID": 31768, "ELEMENT_SET_NO": 999, "REV_AT_EPOCH": 96788, "BSTAR": 0.0039918663, "MEAN_MOTION_DOT": 0.00027585, "MEAN_MOTION_DDOT": 0}, "tle": {"line1": "1 31768U 99025CFT 25341.00374078  .00027585  00000+0  39919-2 0  9993", "line2": "2 31768  99.0428  53.2026 0026344 359.8440 125.5614 14.75847078967882"}}, "geometry": {"type": "Point", "coordinates": [52.50298340080929, 16.607089806171523]}}]}